INTELSAT 34         [PM]
1 40874C 15039A   21294.09190972 -.00000195  00000-0  00000-0 0  2940
2 40874   0.0239 266.8786 0000579  89.4163  11.0791  1.00273497    17
INTELSAT 31             
1 41581C 16035A   21291.00000000 -.00000061  00000-0  00000-0 0  2912
2 41581   0.0156 224.8118 0002031 335.9588  90.9042  1.00270647    18
INTELSAT 31             
1 41581C 16035A   21294.00000000 -.00000061  00000-0  00000-0 0  2948
2 41581   0.0167 240.4065 0001903 328.0911  86.1415  1.00271015    16
INTELSAT 31         [PM]
1 41581C 16035A   21294.53652778 -.00000061  00000-0  00000-0 0  2941
2 41581   0.0163 238.4951 0001975 327.8907 281.9276  1.00273169    16
INTELSAT 36             
1 41747C 16053A   21291.00000000  .00000068  00000-0  00000-0 0  2912
2 41747   0.0120 279.7618 0002448  95.5787  79.8917  1.00271081    19
INTELSAT 36             
1 41747C 16053A   21294.00000000  .00000065  00000-0  00000-0 0  2945
2 41747   0.0154 298.4989 0002485  70.5299  89.1631  1.00271749    15
INTELSAT 36         [PM]
1 41747C 16053A   21294.29471065  .00000045  00000-0  00000-0 0  2947
2 41747   0.0065 273.0390 0002473  82.2240 209.3122  1.00272127    16
INTELSAT 33E            
1 41748C 16053B   21291.00000000  .00000139  00000-0  00000-0 0  2912
2 41748   0.0423 315.9400 0002235 248.4799 242.3057  1.00272935    15
INTELSAT 33E        [PM]
1 41748C 16053B   21293.85538194  .00000139  00000-0  00000-0 0  2939
2 41748   0.0391 327.0437 0002098 244.0212 186.4206  1.00270890    14
INTELSAT 33E            
1 41748C 16053B   21294.00000000  .00000141  00000-0  00000-0 0  2941
2 41748   0.0388 327.0476 0002067 244.6671 237.9753  1.00270969    10
INTELSAT 32E            
1 41945C 17007B   21291.00000000 -.00000179  00000-0  00000-0 0  2916
2 41945   0.0027 229.6021 0000589 261.2519 212.7059  1.00270648    19
INTELSAT 32E            
1 41945C 17007B   21294.00000000 -.00000331  00000-0  00000-0 0  2942
2 41945   0.0000 227.9777 0000126 298.6005 179.9235  1.00270142    19
INTELSAT 32E        [PM]
1 41945C 17007B   21294.33309028 -.00000322  00000-0  00000-0 0  2940
2 41945   0.0023 251.2846 0000445 266.7110 308.7450  1.00274598    18
INTELSAT 35E            
1 42818C 17041A   21291.00000000 -.00000148  00000-0  00000-0 0  2910
2 42818   0.0157 222.3043 0001961 344.9792 144.9387  1.00271837    15
INTELSAT 35E            
1 42818C 17041A   21294.00000000 -.00000151  00000-0  00000-0 0  2940
2 42818   0.0098 217.7965 0001911 344.2139 153.1796  1.00272935    19
INTELSAT 35E        [PM]
1 42818C 17041A   21297.31765046 -.00000148  00000-0  00000-0 0  2974
2 42818   0.0127 237.4266 0001863 334.2004 261.1968  1.00273104    11
INTELSAT 37E            
1 42950C 17059A   21291.00000000 -.00000049  00000-0  00000-0 0  2916
2 42950   0.0040 227.3070 0003284 341.3896 160.0299  1.00272182    19
INTELSAT 37E            
1 42950C 17059A   21294.00000000 -.00000047  00000-0  00000-0 0  2940
2 42950   0.0118 261.2678 0003329 314.7102 155.7112  1.00272301    18
INTELSAT 37E        [PM]
1 42950C 17059A   21297.77152778 -.00000050  00000-0  00000-0 0  2974
2 42950   0.0178 275.9646 0003372 304.8356  72.3619  1.00271844    17
AZERSPACE 2             
1 43632C 18074A   21291.00000000  .00000461  00000-0  00000-0 0  2919
2 43632   0.0008 207.9347 0001615 357.7313 226.1724  1.00270917    14
AZERSPACE 2             
1 43632C 18074A   21294.00000000  .00000198  00000-0  00000-0 0  2942
2 43632   0.0000 193.0419 0001641  28.6513 213.1048  1.00272197    13
HORIZONS 3E             
1 43633C 18074B   21291.00000000  .00000068  00000-0  00000-0 0  2913
2 43633   0.0273  73.6722 0001399 213.1069 268.9646  1.00269432    13
HORIZONS 3E             
1 43633C 18074B   21294.00000000  .00000032  00000-0  00000-0 0  2940
2 43633   0.0144 333.4145 0001639 322.3050 262.9781  1.00270173    14
INTELSAT 39             
1 44476C 19049B   21291.00000000  .00000124  00000-0  00000-0 0  2915
2 44476   0.0141 252.1813 0000739 173.3170  23.1713  1.00270604    14
INTELSAT 39         [PM]
1 44476C 19049B   21293.89582176  .00000124  00000-0  00000-0 0  2935
2 44476   0.0126 252.9091 0000464 149.0762  12.0337  1.00272404    14
INTELSAT 39             
1 44476C 19049B   21294.00000000  .00000123  00000-0  00000-0 0  2940
2 44476   0.0146 265.0689 0000505 145.6564  40.9001  1.00273166    16
GALAXY 30               
1 46114C 20056C   21291.00000000  .00000127  00000-0  00000-0 0  2919
2 46114   0.0029 216.8809 0002147 341.4142  63.4210  1.00271745    10
GALAXY 30               
1 46114C 20056C   21294.00000000  .00000129  00000-0  00000-0 0  2947
2 46114   0.0121 256.2434 0002189 312.1218  56.3260  1.00272762    16
GALAXY 30           [PM]
1 46114C 20056C   21297.55763889  .00000133  00000-0  00000-0 0  2979
2 46114   0.0012 254.3991 0002164 318.5507 256.0230  1.00271567    14
